1 14786U 84023A   07211.15155065 -.00000083 +00000-0 +10000-3 0  9998
2 14786 011.7470 040.3000 0020763 038.7217 321.5201 00.97290579048140
1 14786U 84023A   07213.20718027 -.00000126  00000-0  10000-3 0  9997
2 14786 011.7506 040.2820 0020025 040.4339 319.8109 00.97291478 48163
1 14786U 84023A   07213.20718567 -.00000126 +00000-0 +10000-3 0  9996
2 14786 011.7505 040.2821 0020005 040.5076 319.7390 00.97291481048165
1 14786U 84023A   07218.34608983 -.00000149  00000-0  10000-3 0  9991
2 14786 011.7602 040.2403 0021000 037.8142 322.4006 00.97291427 48219
1 14786U 84023A   07219.37388752 -.00000137  00000-0  10000-3 0  9991
2 14786 011.7621 040.2334 0020436 040.0757 320.1332 00.97291123 48224
1 14786U 84023A   07220.40172516 -.00000122 +00000-0 +10000-3 0  9990
2 14786 011.7640 040.2251 0020426 040.4388 319.7765 00.97290723048236
1 14786U 84023A   07222.45740967 -.00000092  00000-0  10000-3 0  9994
2 14786 011.7679 040.2083 0020410 040.6883 319.5452 00.97290092 48258
1 14786U 84023A   07223.48525551 -.00000080 +00000-0 +10000-3 0  9995
2 14786 011.7699 040.1997 0020419 040.6459 319.5971 00.97289904048268
1 14786U 84023A   07224.51309033 -.00000073  00000-0  10000-3 0  9997
2 14786 011.7719 040.1914 0020442 040.6326 319.6149 00.97289830 48276
1 14786U 84023A   07225.54091952 -.00000070 +00000-0 +10000-3 0  9996
2 14786 011.7739 040.1831 0020435 040.6564 319.5937 00.97289887048289
1 14786U 84023A   07226.56874139 -.00000074  00000-0  10000-3 0  9999
2 14786 011.7759 040.1747 0020446 040.7092 319.5410 00.97290068 48296
1 14786U 84023A   07227.59654975 -.00000085 +00000-0 +10000-3 0  9999
2 14786 011.7778 040.1663 0020447 040.7058 319.5417 00.97290370048302
1 14786U 84023A   07228.62434911 -.00000100 +00000-0 +10000-3 0  9998
2 14786 011.7798 040.1577 0020439 040.6893 319.5532 00.97290745048310
1 14786U 84023A   07228.62434952 -.00000100  00000-0  10000-3 0  9993
2 14786 011.7798 040.1577 0020437 040.6872 319.5557 00.97290747 48314
1 14786U 84023A   07230.67993823 -.00000138  00000-0  10000-3 0  9999
2 14786 011.7837 040.1413 0020112 041.3174 318.9160 00.97291566 48335
1 14786U 84023A   07230.67993880 -.00000138 +00000-0 +10000-3 0  9992
2 14786 011.7837 040.1412 0020116 041.3299 318.9034 00.97291563048333
1 14786U 84023A   07232.73553226 -.00000166  00000-0  10000-3 0  9998
2 14786 011.7877 040.1244 0019984 042.2060 318.0243 00.97292025 48356
1 14786U 84023A   07233.76334635 -.00000169 +00000-0 +10000-3 0  9996
2 14786 011.7897 040.1160 0019874 042.6046 317.6317 00.97292018048361
1 14786U 84023A   07234.79115955 -.00000162  00000-0  10000-3 0  9995
2 14786 011.7916 040.1074 0019872 042.6252 317.6169 00.97291823 48373
1 14786U 84023A   07235.81897948 -.00000148 +00000-0 +10000-3 0  9992
2 14786 011.7936 040.0990 0019876 042.6245 317.6246 00.97291473048385
1 14786U 84023A   07236.84680550 -.00000126  00000-0  10000-3 0  9991
2 14786 011.7955 040.0905 0019731 042.9583 317.2962 00.97291006 48394
1 14786U 84023A   07238.90246804 -.00000077  00000-0  10000-3 0  9995
2 14786 011.7992 040.0742 0019497 043.6050 316.6576 00.97290017 48418
1 14786U 84023A   07239.93030361 -.00000058 +00000-0 +10000-3 0  9997
2 14786 011.8012 040.0658 0019509 043.6723 316.5961 00.97289695048427
1 14786U 84023A   07240.95811409 -.00000047  00000-0  10000-3 0  9999
2 14786 011.8032 040.0575 0019607 043.7228 316.5421 00.97289536 48433
1 14786U 84023A   07240.95811484 -.00000047 +00000-0 +10000-3 0  9992
2 14786 011.8031 040.0574 0019611 043.7033 316.5623 00.97289538048436
1 14786U 84023A   07243.01370643 -.00000056  00000-0  10000-3 0  9999
2 14786 011.8071 040.0400 0019595 043.8528 316.3934 00.97289790 48454
1 14786U 84023A   07244.04149573 -.00000074 +00000-0 +10000-3 0  9999
2 14786 011.8089 040.0320 0019790 043.8419 316.3937 00.97290128048461
1 14786U 84023A   07246.09707911 -.00000123 +00000-0 +10000-3 0  9997
2 14786 011.8133 040.0133 0020051 043.3670 316.8564 00.97290979048486
1 14786U 84023A   07246.09708382 -.00000123  00000-0  10000-3 0  9990
2 14786 011.8131 040.0134 0020056 043.3382 316.8867 00.97290978 48485
1 14786U 84023A   07249.18050614 -.00000172  00000-0  10000-3 0  9995
2 14786 011.8192 039.9883 0020040 043.4291 316.8003 00.97291697 48518
1 14786U 84023A   07250.20832576 -.00000171 +00000-0 +10000-3 0  9994
2 14786 011.8214 039.9799 0019889 043.9147 316.3191 00.97291632048526
1 14786U 84023A   07254.31955705 -.00000106  00000-0  10000-3 0  9998
2 14786 011.8294 039.9473 0019335 045.2539 314.9719 00.97290401 48566
1 14786U 84023A   07254.31955873 -.00000106 +00000-0 +10000-3 0  9994
2 14786 011.8296 039.9470 0019925 044.0178 316.2175 00.97290448048568
1 14786U 84023A   07254.31958190 -.00000106  00000-0  10000-3 0  9999
2 14786 011.8295 039.9468 0019886 044.0094 316.2341 00.97290445 48569
1 14786U 84023A   07255.34736182 -.00000086 +00000-0 +10000-3 0  9995
2 14786 011.8316 039.9387 0019668 044.5730 315.6546 00.97290122048576
1 14786U 84023A   07257.40296625 -.00000057  00000-0  10000-3 0  9995
2 14786 011.8356 039.9218 0019473 045.0722 315.1407 00.97289723 48592
1 14786U 84023A   07257.40297263 -.00000057 +00000-0 +10000-3 0  9994
2 14786 011.8356 039.9216 0019477 044.9994 315.2154 00.97289718048597
1 14786U 84023A   07258.43077921 -.00000052 +00000-0 +10000-3 0  9990
2 14786 011.8376 039.9128 0019450 044.9992 315.2109 00.97289704048607
1 14786U 84023A   07259.45858856 -.00000054  00000-0  10000-3 0  9999
2 14786 011.8396 039.9043 0019420 045.1254 315.0800 00.97289812 48613
1 14786U 84023A   07259.45859028 -.00000054 +00000-0 +10000-3 0  9991
2 14786 011.8397 039.9043 0019397 045.1985 315.0078 00.97289817048610
1 14786U 84023A   07261.51422723 -.00000079  00000-0  10000-3 0  9996
2 14786 011.8436 039.8873 0019376 045.3618 314.8458 00.97290396 48631
1 14786U 84023A   07263.56987376 -.00000121  00000-0  10000-3 0  9991
2 14786 011.8475 039.8705 0019369 045.4292 314.7878 00.97291201 48652
1 14786U 84023A   07263.56987590 -.00000121 +00000-0 +10000-3 0  9999
2 14786 011.8475 039.8706 0019298 045.5802 314.6370 00.97291202048659
1 14786U 84023A   07263.56990821  .00000000  00000-0  10000-3 0  9995
2 14786 011.8476 039.8704 0018458 046.2185 313.9962 00.97287908 48654
1 14786U 84023A   07265.62550603 -.00000157  00000-0  10000-3 0  9998
2 14786 011.8514 039.8542 0019257 045.5393 314.6866 00.97291806 48673
1 14786U 84023A   07266.65330393 -.00000165 +00000-0 +10000-3 0  9993
2 14786 011.8533 039.8460 0019148 045.6385 314.5885 00.97291923048685
1 14786U 84023A   07269.73666197  .00000000  00000-0  10000-3 0  9996
2 14786 011.8597 039.8177 0017491 046.5760 313.6212 00.97287997 48710
1 14786U 84023A   07270.76441784 -.00000115  00000-0  10000-3 0  9992
2 14786 011.8610 039.8122 0019057 045.8671 314.3247 00.97290686 48725
1 14786U 84023A   07272.81999002 -.00000072  00000-0  10000-3 0  9993
2 14786 011.8653 039.7958 0018364 046.4984 313.6615 00.97289717 48748
1 14786U 84023A   07273.84781741 -.00000059 +00000-0 +10000-3 0  9991
2 14786 011.8675 039.7876 0018415 046.5996 313.5610 00.97289434048753
1 14786U 84023A   07274.87564430 -.00000055  00000-0  10000-3 0  9995
2 14786 011.8694 039.7792 0018415 046.6240 313.5372 00.97289352 48769
1 14786U 84023A   07275.90347996 -.00000059 +00000-0 +10000-3 0  9990
2 14786 011.8713 039.7717 0018378 046.5913 313.5716 00.97289453048777
1 14786U 84023A   07276.93131533 -.00000072  00000-0  10000-3 0  9997
2 14786 011.8733 039.7631 0018148 047.0321 313.1306 00.97289701 48786
1 14786U 84023A   07277.95916093 -.00000089 +00000-0 +10000-3 0  9990
2 14786 011.8755 039.7554 0018169 046.9710 313.1988 00.97290084048790
1 14786U 84023A   07278.98698265 -.00000109  00000-0  10000-3 0  9995
2 14786 011.8774 039.7474 0018139 047.0811 313.0896 00.97290523 48800
1 14786U 84023A   07280.01479444 -.00000128  00000-0  10000-3 0  9999
2 14786 011.8793 039.7397 0017764 046.9403 313.2267 00.97290941 48812
1 14786U 84023A   07282.07037814 -.00000151  00000-0  10000-3 0  9994
2 14786 011.8832 039.7235 0017719 047.1132 313.0438 00.97291473 48830
1 14786U 84023A   07283.09816096 -.00000151 +00000-0 +10000-3 0  9994
2 14786 011.8851 039.7153 0017718 047.1398 313.0101 00.97291514048847
1 14786U 84023A   07285.15372738 -.00000134  00000-0  10000-3 0  9994
2 14786 011.8891 039.6987 0017645 047.1429 312.9922 00.97291180 48869
1 14786U 84023A   07286.18152003 -.00000117 +00000-0 +10000-3 0  9990
2 14786 011.8910 039.6901 0017659 047.1563 312.9740 00.97290863048877
1 14786U 84023A   07287.20932213 -.00000099 +00000-0 +10000-3 0  9992
2 14786 011.8930 039.6819 0017656 047.1875 312.9399 00.97290512048882
1 14786U 84023A   07287.20932306 -.00000099  00000-0  10000-3 0  9995
2 14786 011.8930 039.6819 0017700 047.1799 312.9483 00.97290513 48882
1 14786U 84023A   07288.23713783 -.00000081 +00000-0 +10000-3 0  9996
2 14786 011.8949 039.6738 0017666 047.2515 312.8769 00.97290174048890
1 14786U 84023A   07290.29279653 -.00000053  00000-0  10000-3 0  9997
2 14786 011.8988 039.6565 0017643 047.1799 312.9563 00.97289674 48918
1 14786U 84023A   07291.32062931 -.00000046 +00000-0 +10000-3 0  9993
2 14786 011.9008 039.6484 0017520 047.1749 312.9650 00.97289588048923
1 14786U 84023A   07291.32062968 -.00000046 +00000-0 +10000-3 0  9993
2 14786 011.9007 039.6481 0017583 047.1702 312.9700 00.97289584048929
1 14786U 84023A   07292.34846520 -.00000045  00000-0  10000-3 0  9999
2 14786 011.9027 039.6400 0017473 047.1794 312.9647 00.97289618 48930
1 14786U 84023A   07293.37629540 -.00000050 +00000-0 +10000-3 0  9990
2 14786 011.9047 039.6314 0017475 047.1730 312.9746 00.97289782048941
1 14786U 84023A   07294.40410999 -.00000062  00000-0  10000-3 0  9994
2 14786 011.9066 039.6229 0017443 047.1414 313.0052 00.97290066 48951
1 14786U 84023A   07294.40410999 -.00000062 +00000-0 +10000-3 0  9994
2 14786 011.9066 039.6229 0017443 047.1414 313.0052 00.97290066048951
1 14786U 84023A   07295.43191198 -.00000079 +00000-0 +10000-3 0  9993
2 14786 011.9086 039.6152 0017314 047.1443 312.9966 00.97290432048967
